{
  "type": "FeatureCollection",
  "features": [
    {
      "type": "Feature",
      "properties": {
        "norad_id": 31619,
        "name": "FENGYUN 1C DEB",
        "group": "fengyun-1c-debris",
        "lat": -62.613098984981946,
        "lon": -2.806534748749383,
        "alt_km": 551.03697306305,
        "timestamp": "2025-12-26T15:29:39.722632+00:00",
        "meta_object_name": "FENGYUN 1C DEB",
        "meta_object_id": "1999-025BZZ",
        "meta_epoch": "2025-12-25T19:00:41.112000",
        "meta_mean_motion": 14.86638138,
        "meta_eccentricity": 0.00928911,
        "meta_inclination": 99.0717,
        "meta_ra_of_asc_node": 194.1836,
        "meta_arg_of_pericenter": 254.2783,
        "meta_mean_anomaly": 104.8167,
        "meta_ephemeris_type": 0,
        "meta_classification_type": "U",
        "meta_norad_cat_id": 31619,
        "meta_element_set_no": 999,
        "meta_rev_at_epoch": 63682,
        "meta_bstar": 0.0053206565,
        "meta_mean_motion_dot": 0.00051363,
        "meta_mean_motion_ddot": 0,
        "tle_line1": "1 31619U 99025BZZ 25359.79214250  .00051363  00000+0  53207-2 0  9995",
        "tle_line2": "2 31619  99.0717 194.1836 0092891 254.2783 104.8167 14.86638138636827"
      },
      "geometry": {
        "type": "Point",
        "coordinates": [
          -2.806534748749383,
          -62.613098984981946
        ]
      }
    },
    {
      "type": "Feature",
      "properties": {
        "norad_id": 31620,
        "name": "FENGYUN 1C DEB",
        "group": "fengyun-1c-debris",
        "lat": -53.10070812632811,
        "lon": 97.21493206972447,
        "alt_km": 765.7108197747339,
        "timestamp": "2025-12-26T15:29:39.722642+00:00",
        "meta_object_name": "FENGYUN 1C DEB",
        "meta_object_id": "1999-025CAA",
        "meta_epoch": "2025-12-24T11:57:16.474176",
        "meta_mean_motion": 14.3737324,
        "meta_eccentricity": 0.0019475,
        "meta_inclination": 98.8868,
        "meta_ra_of_asc_node": 82.9689,
        "meta_arg_of_pericenter": 5.6991,
        "meta_mean_anomaly": 354.4413,
        "meta_ephemeris_type": 0,
        "meta_classification_type": "U",
        "meta_norad_cat_id": 31620,
        "meta_element_set_no": 999,
        "meta_rev_at_epoch": 66013,
        "meta_bstar": 0.0023608058,
        "meta_mean_motion_dot": 7.026e-05,
        "meta_mean_motion_ddot": 0,
        "tle_line1": "1 31620U 99025CAA 25358.49810734  .00007026  00000+0  23608-2 0  9991",
        "tle_line2": "2 31620  98.8868  82.9689 0019475   5.6991 354.4413 14.37373240660133"
      },
      "geometry": {
        "type": "Point",
        "coordinates": [
          97.21493206972447,
          -53.10070812632811
        ]
      }
    },
    {
      "type": "Feature",
      "properties": {
        "norad_id": 31622,
        "name": "FENGYUN 1C DEB",
        "group": "fengyun-1c-debris",
        "lat": -70.19109856142772,
        "lon": 121.28102603331261,
        "alt_km": 763.7102960167404,
        "timestamp": "2025-12-26T15:29:39.722652+00:00",
        "meta_object_name": "FENGYUN 1C DEB",
        "meta_object_id": "1999-025CAC",
        "meta_epoch": "2025-12-24T05:29:24.828576",
        "meta_mean_motion": 14.37296522,
        "meta_eccentricity": 0.00154964,
        "meta_inclination": 98.8155,
        "meta_ra_of_asc_node": 93.2846,
        "meta_arg_of_pericenter": 305.3244,
        "meta_mean_anomaly": 84.2007,
        "meta_ephemeris_type": 0,
        "meta_classification_type": "U",
        "meta_norad_cat_id": 31622,
        "meta_element_set_no": 999,
        "meta_rev_at_epoch": 95937,
        "meta_bstar": 0.0019273331,
        "meta_mean_motion_dot": 5.713e-05,
        "meta_mean_motion_ddot": 0,
        "tle_line1": "1 31622U 99025CAC 25358.22875959  .00005713  00000+0  19273-2 0  9998",
        "tle_line2": "2 31622  98.8155  93.2846 0015496 305.3244  84.2007 14.37296522959375"
      },
      "geometry": {
        "type": "Point",
        "coordinates": [
          121.28102603331261,
          -70.19109856142772
        ]
      }
    },
    {
      "type": "Feature",
      "properties": {
        "norad_id": 31623,
        "name": "FENGYUN 1C DEB",
        "group": "fengyun-1c-debris",
        "lat": 9.915116689182883,
        "lon": -151.73494489986564,
        "alt_km": 850.1908702660776,
        "timestamp": "2025-12-26T15:29:39.722662+00:00",
        "meta_object_name": "FENGYUN 1C DEB",
        "meta_object_id": "1999-025CAD",
        "meta_epoch": "2025-12-22T19:23:51.435744",
        "meta_mean_motion": 13.82604829,
        "meta_eccentricity": 0.01941743,
        "meta_inclination": 97.6285,
        "meta_ra_of_asc_node": 206.4945,
        "meta_arg_of_pericenter": 338.158,
        "meta_mean_anomaly": 21.1382,
        "meta_ephemeris_type": 0,
        "meta_classification_type": "U",
        "meta_norad_cat_id": 31623,
        "meta_element_set_no": 999,
        "meta_rev_at_epoch": 58059,
        "meta_bstar": 0.00035445246,
        "meta_mean_motion_dot": 4.12e-06,
        "meta_mean_motion_ddot": 0,
        "tle_line1": "1 31623U 99025CAD 25356.80823421  .00000412  00000+0  35445-3 0  9999",
        "tle_line2": "2 31623  97.6285 206.4945 0194174 338.1580  21.1382 13.82604829580595"
      },
      "geometry": {
        "type": "Point",
        "coordinates": [
          -151.73494489986564,
          9.915116689182883
        ]
      }
    },
    {
      "type": "Feature",
      "properties": {
        "norad_id": 31625,
        "name": "FENGYUN 1C DEB",
        "group": "fengyun-1c-debris",
        "lat": 78.57000613809946,
        "lon": -42.52229371141425,
        "alt_km": 758.2638401646118,
        "timestamp": "2025-12-26T15:29:39.722672+00:00",
        "meta_object_name": "FENGYUN 1C DEB",
        "meta_object_id": "1999-025CAF",
        "meta_epoch": "2025-12-26T02:23:45.180672",
        "meta_mean_motion": 14.55418498,
        "meta_eccentricity": 0.01485108,
        "meta_inclination": 98.805,
        "meta_ra_of_asc_node": 86.8493,
        "meta_arg_of_pericenter": 335.0602,
        "meta_mean_anomaly": 142.9091,
        "meta_ephemeris_type": 0,
        "meta_classification_type": "U",
        "meta_norad_cat_id": 31625,
        "meta_element_set_no": 999,
        "meta_rev_at_epoch": 98587,
        "meta_bstar": 0.0001521994,
        "meta_mean_motion_dot": 7.06e-06,
        "meta_mean_motion_ddot": 0,
        "tle_line1": "1 31625U 99025CAF 25360.09982848  .00000706  00000+0  15220-3 0  9991",
        "tle_line2": "2 31625  98.8050  86.8493 0148510 335.0602 142.9091 14.55418498985877"
      },
      "geometry": {
        "type": "Point",
        "coordinates": [
          -42.52229371141425,
          78.57000613809946
        ]
      }
    },
    {
      "type": "Feature",
      "properties": {
        "norad_id": 31628,
        "name": "FENGYUN 1C DEB",
        "group": "fengyun-1c-debris",
        "lat": 68.31288859087661,
        "lon": 72.94809826360972,
        "alt_km": 907.1030253656736,
        "timestamp": "2025-12-26T15:29:39.722682+00:00",
        "meta_object_name": "FENGYUN 1C DEB",
        "meta_object_id": "1999-025CAJ",
        "meta_epoch": "2025-12-24T21:24:47.634336",
        "meta_mean_motion": 13.86888051,
        "meta_eccentricity": 0.0167504,
        "meta_inclination": 102.2708,
        "meta_ra_of_asc_node": 217.4758,
        "meta_arg_of_pericenter": 191.0461,
        "meta_mean_anomaly": 168.6987,
        "meta_ephemeris_type": 0,
        "meta_classification_type": "U",
        "meta_norad_cat_id": 31628,
        "meta_element_set_no": 999,
        "meta_rev_at_epoch": 93468,
        "meta_bstar": 0.0019416,
        "meta_mean_motion_dot": 2.466e-05,
        "meta_mean_motion_ddot": 0,
        "tle_line1": "1 31628U 99025CAJ 25358.89221799  .00002466  00000+0  19416-2 0  9995",
        "tle_line2": "2 31628 102.2708 217.4758 0167504 191.0461 168.6987 13.86888051934684"
      },
      "geometry": {
        "type": "Point",
        "coordinates": [
          72.94809826360972,
          68.31288859087661
        ]
      }
    },
    {
      "type": "Feature",
      "properties": {
        "norad_id": 31629,
        "name": "FENGYUN 1C DEB",
        "group": "fengyun-1c-debris",
        "lat": -48.70793822088159,
        "lon": 65.68490368005482,
        "alt_km": 793.7374515015163,
        "timestamp": "2025-12-26T15:29:39.722692+00:00",
        "meta_object_name": "FENGYUN 1C DEB",
        "meta_object_id": "1999-025CAK",
        "meta_epoch": "2025-12-22T21:46:19.265952",
        "meta_mean_motion": 14.1470932,
        "meta_eccentricity": 0.0103695,
        "meta_inclination": 102.1329,
        "meta_ra_of_asc_node": 46.4435,
        "meta_arg_of_pericenter": 1.0988,
        "meta_mean_anomaly": 359.0383,
        "meta_ephemeris_type": 0,
        "meta_classification_type": "U",
        "meta_norad_cat_id": 31629,
        "meta_element_set_no": 999,
        "meta_rev_at_epoch": 94590,
        "meta_bstar": 0.0024639,
        "meta_mean_motion_dot": 4.928e-05,
        "meta_mean_motion_ddot": 0,
        "tle_line1": "1 31629U 99025CAK 25356.90716743  .00004928  00000+0  24639-2 0  9992",
        "tle_line2": "2 31629 102.1329  46.4435 0103695   1.0988 359.0383 14.14709320945906"
      },
      "geometry": {
        "type": "Point",
        "coordinates": [
          65.68490368005482,
          -48.70793822088159
        ]
      }
    }
  ]
}